[{"OBJECT_NAME":"STARLINK-6298","OBJECT_ID":"2023-061T","EPOCH":"2026-03-09T22:00:01.999584","MEAN_MOTION":15.12957043,"ECCENTRICITY":0.00018412,"INCLINATION":42.9996,"RA_OF_ASC_NODE":195.5965,"ARG_OF_PERICENTER":285.8237,"MEAN_ANOMALY":165.564,"EPHEMERIS_TYPE":0,"CLASSIFICATION_TYPE":"U","NORAD_CAT_ID":56391,"ELEMENT_SET_NO":999,"REV_AT_EPOCH":572,"BSTAR":0.068616012,"MEAN_MOTION_DOT":0.01338629,"MEAN_MOTION_DDOT":0},{"OBJECT_NAME":"MONITOR-3 (RS58S)","OBJECT_ID":"2023-091Q","EPOCH":"2026-03-09T23:24:02.583360","MEAN_MOTION":15.25747617,"ECCENTRICITY":0.0013676,"INCLINATION":97.5199,"RA_OF_ASC_NODE":131.7909,"ARG_OF_PERICENTER":91.0881,"MEAN_ANOMALY":269.1924,"EPHEMERIS_TYPE":0,"CLASSIFICATION_TYPE":"U","NORAD_CAT_ID":57180,"ELEMENT_SET_NO":999,"REV_AT_EPOCH":14915,"BSTAR":0.00054974842,"MEAN_MOTION_DOT":0.00014004,"MEAN_MOTION_DDOT":0}]
